GLOBALSTAR M035         
1 25851U 99037A   25167.92880604 -.00000036  00000+0  10291-2 0  9991
2 25851  51.9971  55.5413 0014030 343.9432  28.4919 11.04538398 96239
GLOBALSTAR M032         
1 25852U 99037B   25167.88545769 -.00000063  00000+0  13499-3 0  9991
2 25852  51.9939 240.8585 0012519 166.0149 194.1000 11.19061537134756
GLOBALSTAR M051         
1 25853U 99037C   25167.35458550 -.00000077  00000+0 -12341-3 0  9996
2 25853  51.9815  42.8999 0000354 133.4382 226.6458 11.42205058132299
GLOBALSTAR M030         
1 25854U 99037D   25167.82444304 -.00000079  00000+0 -92996-4 0  9998
2 25854  51.9851 207.8975 0002879  44.5977 315.5071 11.55108402150000
GLOBALSTAR M048         
1 25872U 99041A   25167.75461008 -.00000055  00000+0  41746-3 0  9994
2 25872  51.9392 336.9531 0013487 180.8328 204.3095 11.33857353124939
GLOBALSTAR M026         
1 25873U 99041B   25167.32433509 -.00000134  00000+0 -25752-2 0  9990
2 25873  51.9969 174.8596 0002434 270.7394 102.3295 11.06840937148397
GLOBALSTAR M043         
1 25874U 99041C   25167.49486015 -.00000044  00000+0  73278-3 0  9995
2 25874  51.9405  85.1850 0013691 313.0764 218.2432 11.25694401122799
GLOBALSTAR M028         
1 25875U 99041D   25167.75355969 -.00000092  00000+0  59936-4 0  9997
2 25875  51.9595 194.3593 0063281  70.6596 290.1093 12.50583906190126
